{"type": "FeatureCollection", "features": [ {"type": "Feature", "properties": {"norad_id": 40230, "name": "COSMOS 2251 DEB", "group": "cosmos-2251-debris", "lat": 73.95676629065606, "lon": -77.43293463359015, "alt_km": 733.3029166140486, "timestamp": "2025-12-27T23:26:37.762333+00:00", "meta": {"OBJECT_NAME": "COSMOS 2251 DEB", "OBJECT_ID": "1993-036BVK", "EPOCH": "2025-12-20T07:41:52.070784", "MEAN_MOTION": 14.49354869, "ECCENTRICITY": 0.00189754, "INCLINATION": 74.0435, "RA_OF_ASC_NODE": 212.675, "ARG_OF_PERICENTER": 270.0639, "MEAN_ANOMALY": 207.3635, "EPHEMERIS_TYPE": 0, "CLASSIFICATION_TYPE": "U", "NORAD_CAT_ID": 40230, "ELEMENT_SET_NO": 999, "REV_AT_EPOCH": 59081, "BSTAR": 0.00041501757, "MEAN_MOTION_DOT": 1.562e-05, "MEAN_MOTION_DDOT": 0}, "tle": {"line1": "1 40230U 93036BVK 25354.32074156  .00001562  00000+0  41502-3 0  9995", "line2": "2 40230  74.0435 212.6750 0018975 270.0639 207.3635 14.49354869590816"}}, "geometry": {"type": "Point", "coordinates": [-77.43293463359015, 73.95676629065606]}}, {"type": "Feature", "properties": {"norad_id": 40233, "name": "COSMOS 2251 DEB", "group": "cosmos-2251-debris", "lat": 50.14126642383007, "lon": 94.11628569372826, "alt_km": 694.0502303732083, "timestamp": "2025-12-27T23:26:37.762344+00:00", "meta": {"OBJECT_NAME": "COSMOS 2251 DEB", "OBJECT_ID": "1993-036BVN", "EPOCH": "2025-12-25T05:21:19.677024", "MEAN_MOTION": 14.58549928, "ECCENTRICITY": 0.004418, "INCLINATION": 73.9403, "RA_OF_ASC_NODE": 79.204, "ARG_OF_PERICENTER": 151.4765, "MEAN_ANOMALY": 208.8831, "EPHEMERIS_TYPE": 0, "CLASSIFICATION_TYPE": "U", "NORAD_CAT_ID": 40233, "ELEMENT_SET_NO": 999, "REV_AT_EPOCH": 59319, "BSTAR": 0.0011641, "MEAN_MOTION_DOT": 5.46e-05, "MEAN_MOTION_DDOT": 0}, "tle": {"line1": "1 40233U 93036BVN 25359.22314441  .00005460  00000+0  11641-2 0  9997", "line2": "2 40233  73.9403  79.2040 0044180 151.4765 208.8831 14.58549928593190"}}, "geometry": {"type": "Point", "coordinates": [94.11628569372826, 50.14126642383007]}}, {"type": "Feature", "properties": {"norad_id": 40236, "name": "COSMOS 2251 DEB", "group": "cosmos-2251-debris", "lat": -29.605185803144376, "lon": 110.05803687245825, "alt_km": 814.4849458223825, "timestamp": "2025-12-27T23:26:37.762354+00:00", "meta": {"OBJECT_NAME": "COSMOS 2251 DEB", "OBJECT_ID": "1993-036BVR", "EPOCH": "2025-12-26T00:27:49.903776", "MEAN_MOTION": 13.24674998, "ECCENTRICITY": 0.0537395, "INCLINATION": 73.5332, "RA_OF_ASC_NODE": 122.8174, "ARG_OF_PERICENTER": 1.8954, "MEAN_ANOMALY": 358.4003, "EPHEMERIS_TYPE": 0, "CLASSIFICATION_TYPE": "U", "NORAD_CAT_ID": 40236, "ELEMENT_SET_NO": 999, "REV_AT_EPOCH": 53800, "BSTAR": 0.0010277, "MEAN_MOTION_DOT": 9.41e-06, "MEAN_MOTION_DDOT": 0}, "tle": {"line1": "1 40236U 93036BVR 25360.01932759  .00000941  00000+0  10277-2 0  9990", "line2": "2 40236  73.5332 122.8174 0537395   1.8954 358.4003 13.24674998538006"}}, "geometry": {"type": "Point", "coordinates": [110.05803687245825, -29.605185803144376]}}, {"type": "Feature", "properties": {"norad_id": 40238, "name": "COSMOS 2251 DEB", "group": "cosmos-2251-debris", "lat": 71.94158394824457, "lon": 158.47877282010487, "alt_km": 1131.3251561954567, "timestamp": "2025-12-27T23:26:37.762365+00:00", "meta": {"OBJECT_NAME": "COSMOS 2251 DEB", "OBJECT_ID": "1993-036BVT", "EPOCH": "2025-12-24T09:50:08.146464", "MEAN_MOTION": 13.25148444, "ECCENTRICITY": 0.05498783, "INCLINATION": 73.9883, "RA_OF_ASC_NODE": 45.6762, "ARG_OF_PERICENTER": 15.0985, "MEAN_ANOMALY": 346.58, "EPHEMERIS_TYPE": 0, "CLASSIFICATION_TYPE": "U", "NORAD_CAT_ID": 40238, "ELEMENT_SET_NO": 999, "REV_AT_EPOCH": 54191, "BSTAR": 0.0017336803, "MEAN_MOTION_DOT": 1.683e-05, "MEAN_MOTION_DDOT": 0}, "tle": {"line1": "1 40238U 93036BVT 25358.40981651  .00001683  00000+0  17337-2 0  9995", "line2": "2 40238  73.9883  45.6762 0549878  15.0985 346.5800 13.25148444541918"}}, "geometry": {"type": "Point", "coordinates": [158.47877282010487, 71.94158394824457]}}, {"type": "Feature", "properties": {"norad_id": 40239, "name": "COSMOS 2251 DEB", "group": "cosmos-2251-debris", "lat": -21.321153062622894, "lon": 73.07548151209141, "alt_km": 744.7213620549783, "timestamp": "2025-12-27T23:26:37.762375+00:00", "meta": {"OBJECT_NAME": "COSMOS 2251 DEB", "OBJECT_ID": "1993-036BVU", "EPOCH": "2025-12-23T23:20:18.364128", "MEAN_MOTION": 14.62039549, "ECCENTRICITY": 0.008546, "INCLINATION": 74.0319, "RA_OF_ASC_NODE": 254.3246, "ARG_OF_PERICENTER": 2.8488, "MEAN_ANOMALY": 11.8068, "EPHEMERIS_TYPE": 0, "CLASSIFICATION_TYPE": "U", "NORAD_CAT_ID": 40239, "ELEMENT_SET_NO": 999, "REV_AT_EPOCH": 59775, "BSTAR": 0.00037675, "MEAN_MOTION_DOT": 1.96e-05, "MEAN_MOTION_DDOT": 0}, "tle": {"line1": "1 40239U 93036BVU 25357.97243477  .00001960  00000+0  37675-3 0  9990", "line2": "2 40239  74.0319 254.3246 0085460   2.8488  11.8068 14.62039549597753"}}, "geometry": {"type": "Point", "coordinates": [73.07548151209141, -21.321153062622894]}}, {"type": "Feature", "properties": {"norad_id": 40792, "name": "COSMOS 2251 DEB", "group": "cosmos-2251-debris", "lat": -43.559463013875565, "lon": 2.25691297905429, "alt_km": 684.4539870948447, "timestamp": "2025-12-27T23:26:37.762386+00:00", "meta": {"OBJECT_NAME": "COSMOS 2251 DEB", "OBJECT_ID": "1993-036BVV", "EPOCH": "2025-12-26T10:19:56.254080", "MEAN_MOTION": 14.6770507, "ECCENTRICITY": 0.0014497, "INCLINATION": 74.0454, "RA_OF_ASC_NODE": 21.0269, "ARG_OF_PERICENTER": 120.8372, "MEAN_ANOMALY": 306.5345, "EPHEMERIS_TYPE": 0, "CLASSIFICATION_TYPE": "U", "NORAD_CAT_ID": 40792, "ELEMENT_SET_NO": 999, "REV_AT_EPOCH": 63385, "BSTAR": 0.00091958, "MEAN_MOTION_DOT": 5.217e-05, "MEAN_MOTION_DDOT": 0}, "tle": {"line1": "1 40792U 93036BVV 25360.43051220  .00005217  00000+0  91958-3 0  9995", "line2": "2 40792  74.0454  21.0269 0014497 120.8372 306.5345 14.67705070633854"}}, "geometry": {"type": "Point", "coordinates": [2.25691297905429, -43.559463013875565]}}, {"type": "Feature", "properties": {"norad_id": 40794, "name": "COSMOS 2251 DEB", "group": "cosmos-2251-debris", "lat": -17.341188857298388, "lon": 88.31657293844789, "alt_km": 589.4838807245878, "timestamp": "2025-12-27T23:26:37.762396+00:00", "meta": {"OBJECT_NAME": "COSMOS 2251 DEB", "OBJECT_ID": "1993-036BVX", "EPOCH": "2025-12-24T01:30:51.702624", "MEAN_MOTION": 14.94031865, "ECCENTRICITY": 0.00097276, "INCLINATION": 73.9771, "RA_OF_ASC_NODE": 101.3724, "ARG_OF_PERICENTER": 255.1473, "MEAN_ANOMALY": 282.9356, "EPHEMERIS_TYPE": 0, "CLASSIFICATION_TYPE": "U", "NORAD_CAT_ID": 40794, "ELEMENT_SET_NO": 999, "REV_AT_EPOCH": 62093, "BSTAR": 0.0045652942, "MEAN_MOTION_DOT": 0.00049073, "MEAN_MOTION_DDOT": 0}, "tle": {"line1": "1 40794U 93036BVX 25358.06309841  .00049073  00000+0  45653-2 0  9996", "line2": "2 40794  73.9771 101.3724 0009727 255.1473 282.9356 14.94031865620936"}}, "geometry": {"type": "Point", "coordinates": [88.31657293844789, -17.341188857298388]}}, {"type": "Feature", "properties": {"norad_id": 40796, "name": "COSMOS 2251 DEB", "group": "cosmos-2251-debris", "lat": 73.91820461900882, "lon": -163.98780124117283, "alt_km": 651.9920687625072, "timestamp": "2025-12-27T23:26:37.762407+00:00", "meta": {"OBJECT_NAME": "COSMOS 2251 DEB", "OBJECT_ID": "1993-036BVZ", "EPOCH": "2025-12-26T16:33:35.172288", "MEAN_MOTION": 14.81907149, "ECCENTRICITY": 0.00559242, "INCLINATION": 74.013, "RA_OF_ASC_NODE": 114.5925, "ARG_OF_PERICENTER": 248.8524, "MEAN_ANOMALY": 177.4514, "EPHEMERIS_TYPE": 0, "CLASSIFICATION_TYPE": "U", "NORAD_CAT_ID": 40796, "ELEMENT_SET_NO": 999, "REV_AT_EPOCH": 76365, "BSTAR": 0.0011252673, "MEAN_MOTION_DOT": 9.13e-05, "MEAN_MOTION_DDOT": 0}, "tle": {"line1": "1 40796U 93036BVZ 25360.68999042  .00009130  00000+0  11253-2 0  9996", "line2": "2 40796  74.0130 114.5925 0055924 248.8524 177.4514 14.81907149763658"}}, "geometry": {"type": "Point", "coordinates": [-163.98780124117283, 73.91820461900882]}}, {"type": "Feature", "properties": {"norad_id": 40797, "name": "COSMOS 2251 DEB", "group": "cosmos-2251-debris", "lat": -15.332186747148445, "lon": 59.018951185074165, "alt_km": 486.6250233930141, "timestamp": "2025-12-27T23:26:37.762418+00:00", "meta": {"OBJECT_NAME": "COSMOS 2251 DEB", "OBJECT_ID": "1993-036BWA", "EPOCH": "2025-12-27T10:48:24.706080", "MEAN_MOTION": 15.11668045, "ECCENTRICITY": 0.0072507, "INCLINATION": 73.92, "RA_OF_ASC_NODE": 64.652, "ARG_OF_PERICENTER": 332.685, "MEAN_ANOMALY": 27.0535, "EPHEMERIS_TYPE": 0, "CLASSIFICATION_TYPE": "U", "NORAD_CAT_ID": 40797, "ELEMENT_SET_NO": 999, "REV_AT_EPOCH": 64866, "BSTAR": 0.0008209, "MEAN_MOTION_DOT": 0.00014869, "MEAN_MOTION_DDOT": 0}, "tle": {"line1": "1 40797U 93036BWA 25361.45028595  .00014869  00000+0  82090-3 0  9992", "line2": "2 40797  73.9200  64.6520 0072507 332.6850  27.0535 15.11668045648660"}}, "geometry": {"type": "Point", "coordinates": [59.018951185074165, -15.332186747148445]}}, {"type": "Feature", "properties": {"norad_id": 40799, "name": "COSMOS 2251 DEB", "group": "cosmos-2251-debris", "lat": -71.75588989580918, "lon": -51.648830760193746, "alt_km": 524.1731802550585, "timestamp": "2025-12-27T23:26:37.762428+00:00", "meta": {"OBJECT_NAME": "COSMOS 2251 DEB", "OBJECT_ID": "1993-036BWC", "EPOCH": "2025-12-26T10:58:52.007232", "MEAN_MOTION": 14.96790134, "ECCENTRICITY": 0.0119466, "INCLINATION": 73.9261, "RA_OF_ASC_NODE": 70.4321, "ARG_OF_PERICENTER": 309.4146, "MEAN_ANOMALY": 49.6507, "EPHEMERIS_TYPE": 0, "CLASSIFICATION_TYPE": "U", "NORAD_CAT_ID": 40799, "ELEMENT_SET_NO": 999, "REV_AT_EPOCH": 50182, "BSTAR": 0.00039326, "MEAN_MOTION_DOT": 5.163e-05, "MEAN_MOTION_DDOT": 0}, "tle": {"line1": "1 40799U 93036BWC 25360.45754638  .00005163  00000+0  39326-3 0  9998", "line2": "2 40799  73.9261  70.4321 0119466 309.4146  49.6507 14.96790134501821"}}, "geometry": {"type": "Point", "coordinates": [-51.648830760193746, -71.75588989580918]}}]}